X,Y,Name,description,Power,Address,Latitude,Longitude,Provider
100.521029,13.742579,7-11 สีตบุตร,"Type2: CLOSED
CCS2: 2x 135 kW, 200A
Parking",135 kW,"รองเมือง, ปทุมวัน, กรุงเทพมหานคร",13.742579,100.521029,EA
100.516818,13.717813,ริทึ่ม สาทร,"Type2: CLOSED
CCS2: 2x 135 kW, 200A
Parking",135 kW,"ยานนาวา, สาทร, กรุงเทพมหานคร",13.717813,100.516818,EA
100.538724,13.725044,โครนอส ทาวเวอร์ ชั้น จี สเตชั่น1,"Type2: CLOSED
CCS2: 2x 135 kW, 200A
Parking",135 kW,"สีลม, บางรัก, กรุงเทพมหานคร",13.725044,100.538724,EA
100.461259,13.784968,เอสโซ่ ปิ่นเกล้า,"Type2: CLOSED
CCS2: 2x 135 kW, 200A
Parking",135 kW,"ตลิ่งชัน, ตลิ่งชัน, กรุงเทพมหานคร",13.784968,100.461259,EA
100.447065,13.743377,MG 824 จำกัด,"Type2: CLOSED
CCS2: 2x 135 kW, 200A
Parking",135 kW,"บางเชือกหนัง, ตลิ่งชัน, กรุงเทพมหานคร",13.743377,100.447065,EA
100.565114,13.758519,อาคาร ซี.พี.ทาวเวอร์ 2 (หน้าศูนย์การค้าฝั่งโลตัส),"Type2: CLOSED
CCS2: 2x 135 kW, 200A
Parking",135 kW,"ดินแดง, ดินแดง, กรุงเทพมหานคร",13.758519,100.565114,EA
100.450589,13.709785,เมโทร พาร์ค สาทร,"Type2: CLOSED
CCS2: 2x 135 kW, 200A
Parking",135 kW,"บางหว้า, ภาษีเจริญ, กรุงเทพมหานคร",13.709785,100.450589,EA
100.561303,13.802918,ซัสโก้ สาขา วิภาวดี 1,"Type2: 22 kW
CCS2: 2x 135 kW, 200A
Parking ",135 kW,"จอมพล, จตุจักร, กรุงเทพมหานคร",13.802918,100.561303,EA
100.522349,13.68431,ทีซี ฟุตบอลคลับ พระราม3,"Type2: CLOSED
CCS2: 2x 135 kW, 200A
Parking",135 kW,"บางโพงพาง, ยานนาวา, กรุงเทพมหานคร",13.68431,100.522349,EA
100.42978,13.712268,เอสโซ่ เพชรเกษม 39,"Type2: CLOSED
CCS2: 2x 135 kW, 200A
Parking",135 kW,"บางหว้า, ภาษีเจริญ, กรุงเทพมหานคร",13.712268,100.42978,EA
100.569298,13.810139,บิ๊กซี-Extra ลาดพร้าว 2,"Type2: CLOSED
CCS2: 135 kW, 200A
Parking",135 kW,"จอมพล, จตุจักร, กรุงเทพมหานคร",13.810139,100.569298,EA
100.590188,13.769676,เราะห์ มาห์ มอลล์,"Type2: CLOSED
CCS2: 2x 135 kW, 200A
Parking",135 kW,"สามเสนนอก, ห้วยขวาง, กรุงเทพมหานคร",13.769676,100.590188,EA
100.501694,13.844058,7-11 ประชาราษฎร์ 16/1,"Type2: CLOSED
CCS2: 2x 135 kW, 200A
Parking",135 kW,"ตลาดขวัญ, เมืองนนทบุรี, นนทบุรี",13.844058,100.501694,EA
100.427679,13.821693,บางกอกเดย์ราม่า,"Type2: CLOSED
CCS2: 2x 135 kW, 200A
Parking",135 kW,"บางขุนกอง, บางกรวย, นนทบุรี",13.821693,100.427679,EA
100.512433,13.854632,7-11 เรวดี 17,"Type2: CLOSED
CCS2: 2x 135 kW, 200A
Parking",135 kW,"ตลาดขวัญ, เมืองนนทบุรี, นนทบุรี",13.854632,100.512433,EA
100.562556,13.846654,โรงพยาบาล วิภาวดี (ถ.งามวงศ์วาน) ST.1,"Type2: CLOSED
CCS2: 2x 135 kW, 200A
Parking",135 kW,"ลาดยาว, จตุจักร, กรุงเทพมหานคร",13.846654,100.562556,EA
100.535624,13.867708,7-11 งามวงศ์วาน 23 แยก18,"Type2: CLOSED
CCS2: 2x 135 kW, 200A
Parking",135 kW,"ท่าทราย, เมืองนนทบุรี, นนทบุรี",13.867708,100.535624,EA
100.620841,13.779194,ออมนิ บิสซิเนส มอลล์ (ลาดพร้าว116),"Type2: CLOSED
CCS2: 2x 135 kW, 200A
Parking",135 kW,"วังทองหลาง, วังทองหลาง, กรุงเทพมหานคร",13.779194,100.620841,EA
100.52849,13.871941,7-11 ทานสัมฤทธิ์,"Type2: CLOSED
CCS2: 2x 135 kW, 200A
Parking",135 kW,"ท่าทราย, เมืองนนทบุรี, นนทบุรี",13.871941,100.52849,EA
100.623521,13.777934,A.C.T สาขา Cockpit ลาดพร้าวซอย 122,"Type2: CLOSED
CCS2: 135 kW, 200A
Parking",135 kW,"วังทองหลาง, วังทองหลาง, กรุงเทพมหานคร",13.777934,100.623521,EA
100.444103,13.64693,7-11 ท่าข้าม 11,"Type2: CLOSED
CCS2: 135 kW, 200A
Parking",135 kW,"แสมดำ, บางขุนเทียน, กรุงเทพมหานคร",13.64693,100.444103,EA
100.631701,13.769092,โรงแรม วาบัวร์ แอสโซเทล ( ลาดพร้าว 130 ),"Type2: CLOSED
CCS2: 2x 135 kW, 200A
Parking",135 kW,"คลองจั่น, บางกะปิ, กรุงเทพมหานคร",13.769092,100.631701,EA
100.628302,13.835864,แฮปปี้ฮับ สปอร์ต แอนด์ รีครีเอชั่น (ถนนสุคนธสวัสดิ์),"Type2: CLOSED
CCS2: 2x 135 kW, 200A
Parkong",135 kW,"ลาดพร้าว, ลาดพร้าว, กรุงเทพมหานคร",13.835864,100.628302,EA
100.630648,13.833919,7-11 ประดิษฐ์มนูธรรม 27,"Type2: CLOSED
CCS2: 2x 135 kW, 200A
Parking",135 kW,"ลาดพร้าว, ลาดพร้าว, กรุงเทพมหานคร",13.833919,100.630648,EA
100.414358,13.634549,7-11 ชุมชนศักดิ์มงคลชัย,"Type2: CLOSED
CCS2: 2x 135 kW, 200A
Parking",135 kW,"แสมดำ, บางขุนเทียน, กรุงเทพมหานคร",13.634549,100.414358,EA
100.636102,13.670984,บริสโซ่ บางนา,"Type2: CLOSED
CCS2: 2x 135 kW, 200A
Parking",135 kW,"บางนา, บางนา, กรุงเทพมหานคร",13.670984,100.636102,EA
100.637679,13.847606,ศิลา ฟิวเจอร์ จำกัด,"Type2: CLOSED
CCS2: 2x 135 kW, 200A
Parking",135 kW,"ท่าแร้ง, บางเขน, กรุงเทพมหานคร",13.847606,100.637679,EA
100.640307,13.649796,บิ๊กซี ศรีนครินทร์,"Type2: CLOSED
CCS2: 135 kW, 200A
Parking",135 kW,"สำโรงเหนือ, เมืองสมุทรปราการ, สมุทรปราการ",13.649796,100.640307,EA
100.643274,13.646208,7-11 กลางซอยศรีด่าน 22,"Type2: CLOSED
CCS2: 2x 135 kW, 200A
pARKING",135 kW,"บางแก้ว, บางพลี, สมุทรปราการ",13.646208,100.643274,EA
100.662285,13.841268,บิ๊กซี คู้บอน,"Type2: CLOSED
CCS2: 2x 135 kW, 200A
Parking",135 kW,"คันนายาว, คันนายาว, กรุงเทพมหานคร",13.841268,100.662285,EA
100.540006,13.937406,เรสโกติวานนท์,"Type2: CLOSED
CCS2: 2x 135 kW, 200A
Parking",135 kW,"บ้านใหม่, ปากเกร็ด, นนทบุรี",13.937406,100.540006,EA
100.705073,13.699083,K-space Mini Mall ถ.สุขาภิบาล2,"Type2: CLOSED
CCS2: 2x 135 kW, 200A
Parking",135 kW,"ประเวศ, ประเวศ, กรุงเทพมหานคร",13.699083,100.705073,EA
100.719781,13.817255,บิ๊กซี สุวินทวงศ์,"Type2: CLOSED
CCS2: 2x 135 kW, 200A
Parking",135 kW,"มีนบุรี, มีนบุรี, กรุงเทพมหานคร",13.817255,100.719781,EA
100.380276,13.94576,เดอะวิสดาพาร์ค,"Type2: CLOSED
CCS2: 2x 135 kW, 200A
Parking",135 kW,"บางบัวทอง, บางบัวทอง, นนทบุรี",13.94576,100.380276,EA
100.734428,13.722254,MG รุ่งเจริญ สาขา ลาดกระบัง,"Type2: CLOSED
CCS2: 2x 135 kW, 200A
Parking",135 kW,"ลาดกระบัง, ลาดกระบัง, กรุงเทพมหานคร",13.722254,100.734428,EA
100.737612,13.809868,บิ๊กซี ร่มเกล้า,"Type2: CLOSED
CCS2: 2x 135 kW, 200A
Parking",135 kW,"มีนบุรี, มีนบุรี, กรุงเทพมหานคร",13.809868,100.737612,EA
100.720714,13.860382,บิ๊กซี หทัยราษฎร์,"Type2: CLOSED
CCS2: 135 kW, 200A
Parking",135 kW,"บางชัน, คลองสามวา, กรุงเทพมหานคร",13.860382,100.720714,EA
100.746591,13.745205,7-11 ร่มเกล้า23,"Type2: CLOSED
CCS2: 2x 135 kW, 200A
Parking",135 kW,"คลองสามประเวศ, ลาดกระบัง, กรุงเทพมหานคร",13.745205,100.746591,EA
100.719774,13.629758,MG นครหลวง (สาขาบางนา),"Type2: CLOSED
CCS2: 2x 135 kW, 200A
Parking",135 kW,"บางโฉลง, บางพลี, สมุทรปราการ",13.629758,100.719774,EA
100.319314,13.985333,บิ๊กซี ไทรน้อย,"Type2: CLOSED
CCS2: 2x 135 kW, 200A
Parking",135 kW,"ไทรน้อย, ไทรน้อย, นนทบุรี",13.985333,100.319314,EA
100.803471,13.809549,MG กรุงเทพ (สาขาสุวินทวงศ์),"Type2: CLOSED
CCS2: 2x 135 kW, 200A
Parking",135 kW,"โคกแฝด, หนองจอก, กรุงเทพมหานคร",13.809549,100.803471,EA
100.776767,13.604462,คาลเท็กซ์ บางนา-ตราด กม.20,"Type2: CLOSED
CCS2: 2x 135 kW, 200A
Parking",135 kW,"บางโฉลง, บางพลี, สมุทรปราการ",13.604462,100.776767,EA
100.8153,13.592996,MG พรีเมียร์ ออโต้โมบิล (กม.24),"Type2: CLOSED
CCS2: 2x 135 kW, 200A
Parking",135 kW,"บางเสาธง, บางเสาธง, สมุทรปราการ",13.592996,100.8153,EA
103.059429,14.967098,MG ไฮเทค ทีแอนด์เอ็น จำกัด (บุรีรัมย์),"Type2: CLOSED
CCS2: 2x 135 kW, 200A
Parking",135 kW,"กระสัง, เมืองบุรีรัมย์, บุรีรัมย์",14.967098,103.059429,EA
103.617304,16.060749,โรบินสัน ร้อยเอ็ด,"Type2: CLOSED
CCS2: 2x 135 kW, 200A
Parking",135 kW,"ดงลาน, เมืองร้อยเอ็ด, ร้อยเอ็ด",16.060749,103.617304,EA
104.8081,15.183089,MG เอ็มทู มอเตอร์สปอร์ต (จ.อุบลราชธานี),"Type2: CLOSED
CCS2: 2x 135 kW, 200A
Parking",135 kW,"หนองกินเพล, วารินชำราบ, อุบลราชธานี",15.183089,104.8081,EA
100.413726,13.831652,มาย์ วิลล่า บางใหญ่,"Type2: CLOSED
CCS2: 2x 120 kW, 200A
Parking",120 kW,"บางม่วง, บางใหญ่, นนทบุรี",13.831652,100.413726,EA
100.590171,13.734521,Mattani (เอกมัย22),"Type2: CLOSED
CCS2: 2x 112 kW, 200A
parking",112 kW,"คลองตันเหนือ, วัฒนา, กรุงเทพมหานคร",13.734521,100.590171,EA
100.532229,13.727318,อาคาร อาคเนย์ประกันภัย จำกัด,"Type2: 22 kW
CCS2: 2x 110 kW, 200A
Parking",110 kW,"บางรัก, บางรัก, กรุงเทพมหานคร",13.727318,100.532229,EA
100.47129,13.785289,ซัสโก้ สาขาบางบำหรุ,"Type2: CLOSED
CCS2: 2x 110 kW, 200A
Parking",110 kW,"บางบำหรุ, บางพลัด, กรุงเทพมหานคร",13.785289,100.47129,EA
100.475762,13.720621,SCB สาขาตลาดพลู,"Type2: 22 kW
CCS2: 2x 110 kW, 200A
PARKING  SCB",110 kW,"ตลาดพลู, ธนบุรี, กรุงเทพมหานคร",13.720621,100.475762,EA
100.444822,13.768419,The Bloc (Ratchaphruek),"Type2: CLOSED
CCS2: 2x 110 kW, 200A
Parking",110 kW,"ตลิ่งชัน, ตลิ่งชัน, กรุงเทพมหานคร",13.768419,100.444822,EA
100.566031,13.740239,ROYCE Privata Residences ซอยสุขุมวิท23,"Type2: 22 kW
CCS2: 2x 110 kW, 200A
Parking ",110 kW,"คลองตันเหนือ, วัฒนา, กรุงเทพมหานคร",13.740239,100.566031,EA
100.570968,13.75339,โรงพยาบาลพระราม 9,"Type2: 22 kW, CLOSED
CCS2: 2x 110 kW, 200A
Parking",110 kW,"บางกะปิ, ห้วยขวาง, กรุงเทพมหานคร",13.75339,100.570968,EA
100.494137,13.685865,ซัสโก้ บางประกอก (สำนักงานใหญ่),"Type2: 22 kW
CCS2: 110 kW, 200A
-",110 kW,"บางปะกอก, ราษฎร์บูรณะ, กรุงเทพมหานคร",13.685865,100.494137,EA
100.500082,13.682779,บิ๊กซี ราษฎร์บูรณะ,"Type2: CLOSED
CCS2: 2x 110 kW, 200A
Parking",110 kW,"บางปะกอก, ราษฎร์บูรณะ, กรุงเทพมหานคร",13.682779,100.500082,EA
100.57506,13.785694,เมืองไทยประกันภัย จำกัด,"Type2: CLOSED
CCS2: 2x 110 kW, 200A
Parking",110 kW,"ห้วยขวาง, ห้วยขวาง, กรุงเทพมหานคร",13.785694,100.57506,EA
100.5562,13.67046,ซัสโก้ สาขาบางยอ,"Type2: 22 kW
CCS2: 2x 110 kW, 200A
-",110 kW,"บางยอ, พระประแดง, สมุทรปราการ",13.67046,100.5562,EA
100.606936,13.765679,อารดา ทาวน์ อิน ทาวน์ (บ.ทรัพย์สิน อารดา จำกัด),"Type2: 22 kW
CCS2: 110 kW, 200A
parking",110 kW,"วังทองหลาง, วังทองหลาง, กรุงเทพมหานคร",13.765679,100.606936,EA
100.600755,13.712975,ศูนย์การค้า Habito Mall สุขุมวิท77,"Type2: 22 kW
CCS2: 2x 110 kW, 200A
Parking of Habito",110 kW,"พระโขนงเหนือ, วัฒนา, กรุงเทพมหานคร",13.712975,100.600755,EA
100.601667,13.709948,บิ๊กซี เอ็กซ์ตร้า อ่อนนุช,"Type2: CLOSED
CCS2: 2x 110 kW, 200A
Parking",110 kW,"พระโขนงเหนือ, วัฒนา, กรุงเทพมหานคร",13.709948,100.601667,EA
100.600705,13.701863,เดอะฟิล (สุขุมวิท 54),"Type2: 22 kW
CCS2: 2x 110 kW, 200A
parking ",110 kW,"บางจาก, พระโขนง, กรุงเทพมหานคร",13.701863,100.600705,EA
100.626596,13.731558,7-11 พัฒนาการ 38 กลางซอย,"Type2: CLOSED
CCS2: 110 kW, 200A
Parking",110 kW,"สวนหลวง, สวนหลวง, กรุงเทพมหานคร",13.731558,100.626596,EA
100.549786,13.877647,One One Food Avenue (ถนนซอยสามัคคี),"Type2: 22 kW, CLOSED
CCS2: 2x 110 kW, 200A
Parking",110 kW,"บางตลาด, ปากเกร็ด, นนทบุรี",13.877647,100.549786,EA
100.50809,13.624978,ซัสโก้ สาขา ประชาอุทิศ 1,"Type2: 22 kW
CCS2: 110 kW, 200A
PARKING",110 kW,"ทุ่งครุ, ทุ่งครุ, กรุงเทพมหานคร",13.624978,100.50809,EA
100.412083,13.857596,ซัสโก้ สาขาบางใหญ่,"Type2: 22 kW
CCS2: 2x 110 kW, 200A
Parking",110 kW,"บางแม่นาง, บางใหญ่, นนทบุรี",13.857596,100.412083,EA
100.626748,13.668863,เบสท์ เอ็นเนอร์ยี่ พลัส สาขา 22 (บางนาขาเข้า),"Type2: 22 kW
CCS2: 2x 110 kW, 200A
Parking",110 kW,"บางนา, บางนา, กรุงเทพมหานคร",13.668863,100.626748,EA
100.525119,13.905722,A.C.T สาขาแจ้งวัฒนะ 17,"Type2: 22 kW, CLOSED
CCS2: 2x 110 kW, 200A
Parking Bridgestone A.C.T (Thailand) Co.,Ltd. ",110 kW,"ปากเกร็ด, ปากเกร็ด, นนทบุรี",13.905722,100.525119,EA
100.647085,13.699445,คาร์ลอฟท์ ออโต้ อิมพอร์ต,"Type2: CLOSED
CCS2: 2x 110 kW, 200A
Parking",110 kW,"หนองบอน, ประเวศ, กรุงเทพมหานคร",13.699445,100.647085,EA
100.391165,13.639777,7-11 พระปิ่น 5 (ซอยรางโพธิ์),"Type2: CLOSED
CCS2: 2x 110 kW, 200A
Parking",110 kW,"บางบอน, บางบอน, กรุงเทพมหานคร",13.639777,100.391165,EA
100.542605,13.915088,ร้านอาหาร Chuan Kitchen (เมืองทองธานี),"Type2: 22 kW
CCS2: 2x 110 kW, 200A
Parking ",110 kW,"บ้านใหม่, ปากเกร็ด, นนทบุรี",13.915088,100.542605,EA
100.647837,13.664623,SPYDER AUTO BANGNA,"Type2: 22 kW
CCS2: 110 kW, 200A
Car Park in the Showroom",110 kW,"บางนา, บางนา, กรุงเทพมหานคร",13.664623,100.647837,EA
100.374563,13.6402,คาลเท็กซ์ ไทรทองรุ่งเรือง บางบอน 5,"Type2: CLOSED
CCS2: 2x 110 kW, 200A
Parking",110 kW,"บางบอน, บางบอน, กรุงเทพมหานคร",13.6402,100.374563,EA
100.643611,13.620418,ไทยสัมพันธ์ปราการ ถ.เทพารักษ์ กม.6,"Type2: 22 kW
CCS2: 2x 110 kW, 200A
Parking",110 kW,"เทพารักษ์, เมืองสมุทรปราการ, สมุทรปราการ",13.620418,100.643611,EA
100.654383,13.921255,บริษัท วีอาร์ ออโต้ สปา จำกัด,"Type2: 22 kW
CCS2: 2x 110 kW, 200A
Parkung",110 kW,"สายไหม, สายไหม, กรุงเทพมหานคร",13.921255,100.654383,EA
100.735811,13.722308,เบสท์ เอ็นเนอร์ยี่ พลัส สาขา 20 (ลาดกระบัง),"Type2: CLOSED
CCS2: 110 kW, 200A, CLOSED
Parking",110 kW,"ลาดกระบัง, ลาดกระบัง, กรุงเทพมหานคร",13.722308,100.735811,EA
100.367843,13.954106,ซัสโก้ สาขาบางบัวทอง(ไทรน้อย),"Type2: 22 kW
CCS2: 2x 110 kW, 200A
Parking",110 kW,"บางบัวทอง, บางบัวทอง, นนทบุรี",13.954106,100.367843,EA
100.767286,13.753907,คาลเท็กซ์ เจ้าคุณ ออยล์ เจ้าคุณทหาร,"Type2: CLOSED
CCS2: 2x 110 kW, 200A
Parking",110 kW,"คลองสามประเวศ, ลาดกระบัง, กรุงเทพมหานคร",13.753907,100.767286,EA
100.757497,13.623727,เอสเค โฮม,"Type2: 22 kW, CLOSED
CCS2: 2x 110 kW, 200A
parking",110 kW,"บางโฉลง, บางพลี, สมุทรปราการ",13.623727,100.757497,EA
100.854739,13.854351,บิ๊กซี หนองจอก,"Type2: CLOSED
CCS2: 2x 110 kW, 200A
Parking",110 kW,"กระทุ่มราย, หนองจอก, กรุงเทพมหานคร",13.854351,100.854739,EA
101.14515,13.085995,Pattana Golf Club ศรีราชา,"Type1: 7 kW
Type2: 22 kW
CCS2: 2x 110 kW, 200A
Parking",110 kW,"เขาคันทรง, ศรีราชา, ชลบุรี",13.085995,101.14515,EA
101.395934,14.058928,โรบินสัน ปราจีนบุรี,"Type2: CLOSED
CCS2: 2x 110 kW, 200A
Parking",110 kW,"บางบริบูรณ์, เมืองปราจีนบุรี, ปราจีนบุรี",14.058928,101.395934,EA
103.531895,14.876193,โรบินสัน สุรินทร์,"Type2: 22 kW
CCS2: 2x 110 kW, 200A
Parking",110 kW,"สลักได, เมืองสุรินทร์, สุรินทร์",14.876193,103.531895,EA
100.448974,13.752084,คาลเท็กซ์ เพชรพระเทพ,"Type2: CLOSED
CCS2: 101 kW, 200A
Parking",101 kW,"บางพรม, ตลิ่งชัน, กรุงเทพมหานคร",13.752084,100.448974,EA
100.392034,13.781252,E-BUS ตลิ่งชัน (สเตชั่น 1),"CCS2: 6x 100 kW, 200A
Parking",100 kW,"ศาลาธรรมสพน์, ทวีวัฒนา, กรุงเทพมหานคร",13.781252,100.392034,EA
100.999661,13.119127,โรงแรมโมริโน ศรีราชา,"Type2: CLOSED
CCS2: 2x 100 kW, 200A
Parking",100 kW,"หนองขาม, ศรีราชา, ชลบุรี",13.119127,100.999661,EA
103.064246,14.973103,โรบินสัน บุรีรัมย์,"Type2: CLOSED
CCS2: 2x 100 kW, 200A
Parking",100 kW,"กระสัง, เมืองบุรีรัมย์, บุรีรัมย์",14.973103,103.064246,EA
100.581202,13.886412,อาคารหลักสี่พลาซ่า (ไอที หลักสี่),"Type2: CLOSED
CCS2: 2x 97 kW, 200A
Parking",97 kW,"ตลาดบางเขน, หลักสี่, กรุงเทพมหานคร",13.886412,100.581202,EA
100.623263,13.942905,ปั้มน้ำมัน รวยเป๋าตุง จำกัด,"Type2: CLOSED
CCS2: 95 kW, 200A
Parking",94 kW,"สีกัน, ดอนเมือง, กรุงเทพมหานคร",13.942905,100.623263,EA
100.507575,13.719416,ศูนย์การค้า SENA Fest ถ.เจริญนคร,"Type1: 22 kW
Type2: CLOSED
CCS2: 2x 90 kW, 200A
Parking",90 kW,"คลองต้นไทร, คลองสาน, กรุงเทพมหานคร",13.719416,100.507575,EA
100.567215,13.718328,A.C.T สาขาเกษมราษฏร์ (พระราม4),"Type2: 5 kW, CLOSED
CCS2: 2x 90 kW, 200A
Bridgestone A.C.T (Thailand) Co.,Ltd. Kasemraj Branch",90 kW,"คลองตัน, คลองเตย, กรุงเทพมหานคร",13.718328,100.567215,EA
100.590917,13.788803,โรงแรมบ้านสวนรัชดาเรสซิเด้นท์ ซ.ลาดพร้าว64,"Type2: 2x 22 kW
CCS2: 2x 90 kW, 200A
parking",90 kW,"วังทองหลาง, วังทองหลาง, กรุงเทพมหานคร",13.788803,100.590917,EA
100.496691,13.881065,สนามบินน้ำมาร์เก็ตพาร์ต,"Type2: 2x 22 kW
CCS2: 2x 90 kW, 200A
Parking",90 kW,"ท่าทราย, เมืองนนทบุรี, นนทบุรี",13.881065,100.496691,EA
100.548114,13.897306,A.C.T สาขาแจ้งวัฒนะ,"Type1: 
Type2: 11 kW
CCS2: 90 kW, 200A
Bridgestone ACT changwattana",90 kW,"ปากเกร็ด, ปากเกร็ด, นนทบุรี",13.897306,100.548114,EA
100.62934,13.856239,ศูนย์การค้า EASE PARK รามอินทรา,"Type1: 22 kW
Type2: 22 kW
CCS2: 90 kW, 200A
Parking",90 kW,"ท่าแร้ง, บางเขน, กรุงเทพมหานคร",13.856239,100.62934,EA
100.663809,13.811056,ร้านอาหาร chocolate ville ถ.ประเสริฐมนูกิจ,"Type1: 22 kW
Type2: 22 kW, CLOSED
CCS2: 2x 90 kW, 200A
Parking",90 kW,"คันนายาว, คันนายาว, กรุงเทพมหานคร",13.811056,100.663809,EA
100.483629,13.930394,บริษัท ส.สิณีเซอร์วิส จำกัด,"Type2: 2x 22 kW
CCS2: 2x 90 kW, 200A
Parking",90 kW,"คลองพระอุดม, ปากเกร็ด, นนทบุรี",13.930394,100.483629,EA
100.554162,13.938638,โรบินสัน ศรีสมาน,"Type2: 2x 22 kW
CCS2: 2x 90 kW, 200A
Parking",90 kW,"บ้านใหม่, ปากเกร็ด, นนทบุรี",13.938638,100.554162,EA
100.609553,13.583558,โรบินสัน สมุทรปราการ,"Type2: 2x 22 kW
CCS2: 90 kW, 200A
Parking",90 kW,"ท้ายบ้านใหม่, เมืองสมุทรปราการ, สมุทรปราการ",13.583558,100.609553,EA
100.42699,13.958158,โรงแรม ศศิศุขสันต์ บางบัวทอง,"Type1: 22 kW
Type2: 22 kW
CCS2: 2x 90 kW, 200A
Parking",90 kW,"ลำโพ, บางบัวทอง, นนทบุรี",13.958158,100.42699,EA
100.718523,13.628836,ศูนย์การค้า May Market ถ.บางนา-ตราด,"Type1: 22 kW, CLOSED
Type2: 22 kW, CLOSED
CCS2: 90 kW, 200A
parking",90 kW,"บางพลีใหญ่, บางพลี, สมุทรปราการ",13.628836,100.718523,EA
100.437424,13.915549,7-11 สินบดี จุด 2,"Type2: CLOSED
CCS2: 2x 89 kW, 200A
Parking",89 kW,"พิมลราช, บางบัวทอง, นนทบุรี",13.915549,100.437424,EA
100.726847,13.806783,บิ๊กซี สุขาภิบาล3,"Type2: CLOSED
CCS2: 2x 76 kW
Parking",76 kW,"มีนบุรี, มีนบุรี, กรุงเทพมหานคร",13.806783,100.726847,EA
100.524702,13.741238,ZY Walk,"Type2: 22 kW
CCS2: 75 kW
parking",75 kW,"วังใหม่, ปทุมวัน, กรุงเทพมหานคร",13.741238,100.524702,EA
100.575307,13.727257,เอควา เรสซิเดนซ์ สุขุมวิท 49,"Type2: CLOSED
CCS2: 2x 75 kW
Parking",75 kW,"คลองตันเหนือ, วัฒนา, กรุงเทพมหานคร",13.727257,100.575307,EA
100.405767,13.767229,The Paseo Park (สาขากาญจนาภิเษก) ST. 2 (ลานจอดด้านหลัง),"Type1: CLOSED
Type2: 22 kW
CCS2: 2x 75 kW
Parking Area",75 kW,"ศาลาธรรมสพน์, ทวีวัฒนา, กรุงเทพมหานคร",13.767229,100.405767,EA
100.546585,13.864403,ร้านอาหาร นิตยาไก่ย่าง ถ.ประชาชื่น,"Type2: 22 kW
CCS2: 2x 75 kW
PARKING ",75 kW,"บางเขน, เมืองนนทบุรี, นนทบุรี",13.864403,100.546585,EA
100.672389,13.694531,เบสท์ เอ็นเนอร์ยี่ พลัส สาขา 16 (หนองบอน),"Type2: 5 kW
CCS2: 2x 75 kW
Parking",75 kW,"หนองบอน, ประเวศ, กรุงเทพมหานคร",13.694531,100.672389,EA
100.443835,13.928569,LPG เลิศราชพฤกษ์,"Type2: 22 kW
CCS2: 2x 75 kW
parking LPG ราชพฤกษ์",75 kW,"บางพลับ, ปากเกร็ด, นนทบุรี",13.928569,100.443835,EA
100.714516,13.797279,7-11 รามคำแหง 170,"Type2: CLOSED
CCS2: 2x 75 kW
Parking",75 kW,"มีนบุรี, มีนบุรี, กรุงเทพมหานคร",13.797279,100.714516,EA
100.532659,14.008741,Standard NGV (ปทุมธานีสายเก่า),"Type2: CLOSED
CCS2: 2x 75 kW
Parking",75 kW,"บางปรอก, เมืองปทุมธานี, ปทุมธานี",14.008741,100.532659,EA
100.289781,13.568521,ศูนย์การค้า Porto Chino St.1 มหาชัย,"Type2: 22 kW
CCS2: 2x 75 kW
Parking",75 kW,"นาดี, เมืองสมุทรสาคร, สมุทรสาคร",13.568521,100.289781,EA
101.02101,13.601652,FN Factory Outlet สาขาฉะเชิงเทรา (Chachoengsao),"Type2: 22 kW
CCS2: 75 kW
FN Factory Outlet ",75 kW,"ลาดขวาง, บ้านโพธิ์, ฉะเชิงเทรา",13.601652,101.02101,EA
100.614251,14.323089,MG อยุธยา,"Type2: CLOSED
CCS2: 2x 75 kW
Parking",75 kW,"คลองสวนพลู, พระนครศรีอยุธยา, พระนครศรีอยุธยา",14.323089,100.614251,EA
99.79531,13.485609,MG ก้องกังวาล ราชบุรี,"Type2: CLOSED
CCS2: 2x 75 kW
Parking",75 kW,"อ่างทอง, เมืองราชบุรี, ราชบุรี",13.485609,99.79531,EA
100.130913,14.44668,MG เอ็น.วี.เอ็ม. มอเตอร์เซลล์ สุพรรณบุรี,"Type2: CLOSED
CCS2: 75 kW
Parking",75 kW,"ท่าระหัด, เมืองสุพรรณบุรี, สุพรรณบุรี",14.44668,100.130913,EA
100.949098,14.540879,โรบินสัน สระบุรี,"Type2: CLOSED
CCS2: 2x 75 kW
Parking",75 kW,"ตลิ่งชัน, เมืองสระบุรี, สระบุรี",14.540879,100.949098,EA
99.961173,12.557457,บ้านราชดำเนิน หัวหิน รีสอร์ท,"Type2: 22 kW
CCS2: 2x 75 kW
Parking",75 kW,"หัวหิน, หัวหิน, ประจวบคีรีขันธ์",12.557457,99.961173,EA
99.963009,12.531887,HOLIDAY INN HOTEL 2 (ด้านหลังอาคาร),"Type1: CLOSED
Type2: 22 kW
CCS2: 75 kW
parking",75 kW,"หนองแก, หัวหิน, ประจวบคีรีขันธ์",12.531887,99.963009,EA
102.137269,14.933957,ดูโฮม สาขานครราชสีมา,"Type2: 22 kW
CCS2: 2x 75 kW
Parking",75 kW,"หนองบัวศาลา, เมืองนครราชสีมา, นครราชสีมา",14.933957,102.137269,EA
102.124686,15.008553,โกลบอลเฮ้าส์ (นครราชสีมา),"Type2: CLOSED
CCS2: 2x 75 kW
Parking",75 kW,"บ้านเกาะ, เมืองนครราชสีมา, นครราชสีมา",15.008553,102.124686,EA
102.814643,14.632438,MG ไฮเทค ทีแอนด์เอ็น จำกัด (นางรอง),"Type2: CLOSED
CCS2: 2x 75 kW
Parking",75 kW,"ถนนหัก, นางรอง, บุรีรัมย์",14.632438,102.814643,EA
102.032721,15.788194,โรบินสัน ชัยภูมิ,"Type2: CLOSED
CCS2: 2x 75 kW
Paring",75 kW,"ในเมือง, เมืองชัยภูมิ, ชัยภูมิ",15.788194,102.032721,EA
99.549222,16.476111,โรบินสัน กำแพงเพชร,"Type2: 22 kW
CCS2: 75 kW
Parking",75 kW,"ในเมือง, เมืองกำแพงเพชร, กำแพงเพชร",16.476111,99.549222,EA
104.842517,15.270113,Ubon Square (บ.เจริญพัฒนาอาเขต จำกัด),"Type2: 22 kW
CCS2: 2x 75 kW
Parking",75 kW,"ในเมือง, เมืองอุบลราชธานี, อุบลราชธานี",15.270113,104.842517,EA
104.718869,16.568231,โรบินสัน มุกดาหาร,"Type2: 22 kW
CCS2: 75 kW
Parking",75 kW,"มุกดาหาร, เมืองมุกดาหาร, มุกดาหาร",16.568231,104.718869,EA
98.284893,7.962614,อินเตอร์คอนติเนตัล ภูเก็ต,"Type2: 11 kW
CCS2: 2x 75 kW
Parking",75 kW,"กมลา, กะทู้, ภูเก็ต",7.962614,98.284893,EA
100.32895,13.757756,ปั้มน้ำมัน เอ็มทูบีเทรดดิ้ง จำกัด พุทธมณฑล สาย 4,"Type2: 2x 22 kW
CCS2: 2x 50 kW
parking",50 kW,"ไร่ขิง, สามพราน, นครปฐม",13.757756,100.32895,EA
100.596284,14.076432,ม.ธรรมศาสตร์ศูนย์รังสิต ST.1,"Type2: 22 kW
CCS2: 2x 50 kW
Parking",50 kW,"คลองหนึ่ง, คลองหลวง, ปทุมธานี",14.076432,100.596284,EA
100.929666,13.167714,ศูนย์การค้าแปซิฟิค พาร์ค ศรีราชา (อาคารจอดด้านหลัง P2),"Type2: 2x 22 kW
CCS2: 50 kW
parking",50 kW,"ศรีราชา, ศรีราชา, ชลบุรี",13.167714,100.929666,EA
101.24179,14.234565,เดอะ คอย,"Type2: CLOSED
CCS2: 2x 50 kW
PARKING",50 kW,"เขาพระ, เมืองนครนายก, นครนายก",14.234565,101.24179,EA
100.987972,12.916087,Siam Country Club Pattaya Old Course,"Type2: 22 kW
CCS2: 2x 50 kW
Parking",50 kW,"โป่ง, บางละมุง, ชลบุรี",12.916087,100.987972,EA
101.1488,13.022475,ทีไอเอ็ม เอ็นเนอร์จี,"Type2: CLOSED
CCS2: 2x 50 kW
Parking",50 kW,"ปลวกแดง, ปลวกแดง, ระยอง",13.022475,101.1488,EA
100.992656,12.91277,ปั้มน้ำมันสยามคันทรีคลับ พัทยา,"Type2: 22 kW
CCS2: 2x 50 kW
Parking",50 kW,"โป่ง, บางละมุง, ชลบุรี",12.91277,100.992656,EA
100.913753,12.832686,คาลเท็กซ์ พัทยา-นาจอมเทียน,"Type2: CLOSED
CCS2: 2x 50 kW
Praking",50 kW,"หนองปรือ, บางละมุง, ชลบุรี",12.832686,100.913753,EA
101.118928,12.841976,ศิลามั่นคง ปิโตรเลียม ระยอง,"Type2: CLOSED
CCS2: 50 kW
Parking",50 kW,"มะขามคู่, นิคมพัฒนา, ระยอง",12.841976,101.118928,EA
100.444044,14.853201,เกษราเบเกอรี่ (จ.สิงห์บุรี),"Type2: CLOSED
CCS2: 2x 50 kW
Parking",50 kW,"พรหมบุรี, พรหมบุรี, สิงห์บุรี",14.853201,100.444044,EA
101.296117,14.567057,ESCAPE KHAO YAI HOTEL,"Type1: 22 kW, CLOSED
Type2: 22 kW
CCS2: 50 kW
Parking",50 kW,"พญาเย็น, ปากช่อง, นครราชสีมา",14.567057,101.296117,EA
101.401012,14.585561,โรงแรม เขาใหญ่ พาโนราม่า ฟาร์ม จำกัด (สำนักงานใหญ่),"Type1: 22 kW
Type2: 22 kW
CCS2: 2x 50 kW
Parking",50 kW,"หนองน้ำแดง, ปากช่อง, นครราชสีมา",14.585561,101.401012,EA
101.264925,12.682672,ศูนย์การค้า แสงทอง พลัส จ.ระยอง,"Type2: 22 kW
CCS2: 2x 50 kW
parking",50 kW,"เนินพระ, เมืองระยอง, ระยอง",12.682672,101.264925,EA
101.272193,12.687207,ตลาดสตาร์ระยอง (จ.ระยอง),"Type2: 22 kW
CCS2: 2x 50 kW
Parking",50 kW,"เนินพระ, เมืองระยอง, ระยอง",12.687207,101.272193,EA
99.131227,14.111251,เฮฟเว่น แคว รีสอร์ท (ไทรโยค) จ.กาญจนบุรี,"Type1: CLOSED
Type2: 11 kW
CCS2: 2x 50 kW
Parking",50 kW,"ลุ่มสุ่ม, ไทรโยค, กาญจนบุรี",14.111251,99.131227,EA
100.134198,15.167415,สุวรรณาริเวอร์ไซด์รีสอร์ท (จ.ชัยนาท),"Type2: 22 kW
CCS2: 2x 50 kW
Parking",50 kW,"บ้านกล้วย, เมืองชัยนาท, ชัยนาท",15.167415,100.134198,EA
101.63971,12.800445,ECF (ระยอง),"Type2: 22 kW
CCS2: 2x 50 kW
parking",50 kW,"ทางเกวียน, แกลง, ระยอง",12.800445,101.63971,EA
99.127515,14.431049,เลค เฮฟเว่น รีสอร์ท (จ.กาญจนบุรี),"Type2: 2x 22 kW
CCS2: 2x 50 kW
Parking",50 kW,"ท่ากระดาน, ศรีสวัสดิ์, กาญจนบุรี",14.431049,99.127515,EA
99.891013,12.378388,ปั้มแก๊ส ไทยแก๊สปิโตรเลี่ยม จำกัด (ปราณบุรี),"Type2: 22 kW
CCS2: 50 kW
Parking",50 kW,"เขาน้อย, ปราณบุรี, ประจวบคีรีขันธ์",12.378388,99.891013,EA
102.136234,14.7383,มิตซูรัตนหิรัญ,"Type2: CLOSED
CCS2: 2x 50 kW
Parking",50 kW,"พลับพลา, โชคชัย, นครราชสีมา",14.7383,102.136234,EA
100.119573,15.697618,โรงแรม บ้านสวนรีสอร์ท (จ.นครสรรค์),"Type1: 22 kW
Type2: 22 kW
CCS2: 50 kW
Parking",50 kW,"นครสวรรค์ตก, เมืองนครสวรรค์, นครสวรรค์",15.697618,100.119573,EA
100.121294,15.775353,ปั้มแก๊ส เกษตรพัฒนา 1993 (จ.นครสวรรค์),"Type2: 22 kW, CLOSED
CCS2: 50 kW
Parking",50 kW,"นครสวรรค์ตก, เมืองนครสวรรค์, นครสวรรค์",15.775353,100.121294,EA
100.338223,16.849142,พิษณุโลกแดนพรีท (Solar Rest Station),"Type2: 3x 22 kW
CCS2: 2x 50 kW
Parking",50 kW,"สมอแข, เมืองพิษณุโลก, พิษณุโลก",16.849142,100.338223,EA
103.282363,16.167094,MG อารีมิตร (มหาสารคาม),"Type2: CLOSED
CCS2: 2x 50 kW
PARKING",50 kW,"แก่งเลิงจาน, เมืองมหาสารคาม, มหาสารคาม",16.167094,103.282363,EA
100.129759,17.611077,Global house อุตรดิตถ์,"Type2: CLOSED
CCS2: 50 kW
Parking",50 kW,"ป่าเซ่า, เมืองอุตรดิตถ์, อุตรดิตถ์",17.611077,100.129759,EA
101.724767,17.47328,MG ร่วมใจMGเมืองเลย,"Type2: CLOSED
CCS2: 2x 50 kW
Parking",50 kW,"กุดป่อง, เมืองเลย, เลย",17.47328,101.724767,EA
102.398653,17.234447,MG ร่วมใจMGหนองบัวลำภู,"Type2: CLOSED
CCS2: 2x 50 kW
Parking",50 kW,"หนองภัยศูนย์, เมืองหนองบัวลำภู, หนองบัวลำภู",17.234447,102.398653,EA
104.459167,15.099109,เพทโทรล พลัส (จ.ศรีสะเกษ),"Type2: CLOSED
CCS2: 2x 50 kW
Parking",50 kW,"โพนเขวา, เมืองศรีสะเกษ, ศรีสะเกษ",15.099109,104.459167,EA
104.633502,15.79754,MGดีเลิศ ออโต้คาร์ (จ.อำนาจเจริญ),"Type2: CLOSED
CCS2: 2x 50 kW
Parking",50 kW,"ไก่คำ, เมืองอำนาจเจริญ, อำนาจเจริญ",15.79754,104.633502,EA
98.93572,18.740252,ฟอร์ตี้ ไนน์,"Type2: CLOSED
CCS2: 2x 50 kW
Parking",50 kW,"หนองควาย, หางดง, เชียงใหม่",18.740252,98.93572,EA
104.773257,17.383532,MG รวมกิจ (นครพนม),"Type1: CLOSED
CCS2: 2x 50 kW
Parking",50 kW,"หนองญาติ, เมืองนครพนม, นครพนม",17.383532,104.773257,EA
98.825052,8.031277,พีชลากูน่า รีสอร์ท จ.กระบี่,"Type2: 22 kW
CCS2: 2x 50 kW
parking",50 kW,"อ่าวนาง, เมืองกระบี่, กระบี่",8.031277,98.825052,EA
100.510499,13.727306,แมกโนเลียส์ วอเตอร์ฟรอนซ์ เรสซิเดนซ์,"Type2: 22 kW
CCS2: 40 kW
Parking",40 kW,"คลองต้นไทร, คลองสาน, กรุงเทพมหานคร",13.727306,100.510499,EA
100.510086,13.726441,ICONSIAM (B1 Zone Gold),"Type1: 11 kW
Type2: 5x 11 kW
CCS2: 40 kW
Parking  B1",40 kW,"คลองต้นไทร, คลองสาน, กรุงเทพมหานคร",13.726441,100.510086,EA
100.530224,13.720536,เอ็มไพร์ทาวเวอร์ (อาคารจอดรถชั้น B1),"Type2: 22 kW
CCS2: 40 kW
Parking",40 kW,"ยานนาวา, สาทร, กรุงเทพมหานคร",13.720536,100.530224,EA
100.529551,13.852591,กรมอนามัย (กระทรวงสาธารณสุข),"CCS2: 2x 40 kW
Parking",40 kW,"ตลาดขวัญ, เมืองนนทบุรี, นนทบุรี",13.852591,100.529551,EA
100.622926,13.5393,เมืองโบราณ บางปู ST.1,"Type1: 11 kW
Type2: 2x 11 kW
CCS2: 2x 40 kW
parking",40 kW,"บางปู, เมืองสมุทรปราการ, สมุทรปราการ",13.5393,100.622926,EA
100.89026,12.919872,7-11 ธาราพัทยา,"Type2: CLOSED
CCS2: 2x 40 kW
parking",40 kW,"หนองปรือ, บางละมุง, ชลบุรี",12.919872,100.89026,EA
100.976415,12.695681,พลูตาหลวง-อู่ตะเภา,"Type2: CLOSED
CCS2: 2x 40 kW
Parking",40 kW,"พลูตาหลวง, สัตหีบ, ชลบุรี",12.695681,100.976415,EA
102.104563,12.620122,MG Chanthaburi,"Type2: CLOSED
CCS2: 2x 40 kW
Parking",40 kW,"ท่าช้าง, เมืองจันทบุรี, จันทบุรี",12.620122,102.104563,EA
100.739505,18.625593,ถ่านเมืองน่าน (จ.น่าน),"Type2: 22 kW
CCS2: 2x 40 kW
Parking",40 kW,"น้ำปั้ว, เวียงสา, น่าน",18.625593,100.739505,EA
99.06931,18.778977,คาลเท็กซ์ เอ็ม เอ็นเนอร์จี้,"Type2: CLOSED
CCS2: 2x 40 kW
Parking",40 kW,"สันกลาง, สันกำแพง, เชียงใหม่",18.778977,99.06931,EA
100.557874,13.721135,เดอะ พาร์ค (สเตชั่น 1),"Type2: 3x 22 kW
CCS2: 3x 38 kW
Parking",38 kW,"คลองเตย, คลองเตย, กรุงเทพมหานคร",13.721135,100.557874,EA
100.658184,13.599422,ซี พี เอ็น ออยล์,"CCS2: 38 kW
Parking",38 kW,"แพรกษาใหม่, เมืองสมุทรปราการ, สมุทรปราการ",13.599422,100.658184,EA
99.962177,12.547687,บลูพอร์ต หัวหิน ซั้นG,"Type2: 2x 22 kW
CCS2: 38 kW
Parknig",38 kW,"หนองแก, หัวหิน, ประจวบคีรีขันธ์",12.547687,99.962177,EA
100.530401,13.73299,อาคารจอดรถ จามจุรีสแควร์ ชั้น 7,"Type1: 22 kW, CLOSED
Type2: 2x 22 kW
CCS2: 35 kW
Parking",35 kW,"ปทุมวัน, ปทุมวัน, กรุงเทพมหานคร",13.73299,100.530401,EA
100.538481,13.72482,โครนอส ทาวเวอร์ ชั้น 2 สเตชั่น 2-1,"Type2: 5x 11 kW
CCS2: 35 kW
Parking",35 kW,"สีลม, บางรัก, กรุงเทพมหานคร",13.72482,100.538481,EA
100.481446,13.872538,ตลาดต้นสัก,"Type2: CLOSED
CCS2: 30 kW, CLOSED
Parking",30 kW,"บางกระสอ, เมืองนนทบุรี, นนทบุรี",13.872538,100.481446,EA
100.644197,13.858407,เพลินนารี่ มอลล์ วัชรพล,"Type2: 2x 22 kW
CCS2: 20 kW
Parking",22 kW,"ท่าแร้ง, บางเขน, กรุงเทพมหานคร",13.858407,100.644197,EA
100.391617,13.781313,E-BUS ตลิ่งชัน (สเตชั่น2),"CCS2: 7x 
Parking",0 kW,"ศาลาธรรมสพน์, ทวีวัฒนา, กรุงเทพมหานคร",13.781313,100.391617,EA
99.770365,17.009002,โกลบอลเฮ้าส์ สุโขทัย,"Type2: CLOSED
CCS2: CLOSED
Parking",0 kW,"บ้านกล้วย, เมืองสุโขทัย, สุโขทัย",17.009002,99.770365,EA
