X,Y,Name,description,Power,Latitude,Longitude,Provider
101.07898712,13.33417511,สถานี เข้าท่า บ้านบึง,"101 หมู่ 1 ตำบล หนองซ้ำซาก อำเภอบ้านบึง ชลบุรี 20170 &#34;ร่วมเครือข่าย PEA VOLTA&#34;  สถานี เข้าท่า บ้านบึง #2 (ร่วมเครือข่าย PEA VOLTA)",150 kW,13.33417511,101.07898712,PEA
100.95155334,13.32862473,ชลบุรี 2,47/1 หมู่ 3 ต.เสม็ด อ.เมืองชลบุรี จ.ชลบุรี 20000 Tel: 038 455 086 Fax: -  เปิดให้บริการเพียง 1 หัวชาร์จ PEA VOLTA ชลบุรี 2,120 kW,13.32862473,100.95155334,PEA
100.8840332,12.92267895,พัทยาใต้,321/1 หมู่ที่ 10 ต.หนองปรือ อ.บางละมุง จ.ชลบุรี 20150 Tel: - Fax: - PEA VOLTA พัทยาใต้,50 kW,12.92267895,100.8840332,PEA
99.82255554,13.26557732,เขาย้อย,135 หมู่ 4 ถ.เพชรเกษม ต.สระพัง อ.เขาย้อย จ.เพชรบุรี 76140 Tel: 0-3256-2455 Fax: -  PEA VOLTA เขาย้อย,50 kW,13.26557732,99.82255554,PEA
100.55857849,13.85042763,สำนักงานใหญ่,200 ถนนงามวงศ์วาน แขวงลาดยาว เขตจตุจักร จ.กรุงเทพมหานคร 10900 (ปิดให้บริการชั่วคราว วันที่ 16/12/2022 เวลา 13:00 - 14:30 น.) PEA VOLTA สำนักงานใหญ่ #1,50 kW,13.85042763,100.55857849,PEA
100.18870544,13.80342865,นครชัยศรี,9 หมู่1 ต.ไทยาวาส อ.นครชัยศรี จ.นครปฐม 73121 Tel: 034-228-716 Fax: - PEA VOLTA นครชัยศรี,50 kW,13.80342865,100.18870544,PEA
100.26477051,13.54332638,สมุทรสาคร,1062 ถ.วิเชียรโชฏก ต.มหาชัย อ.เมือง จ.สมุทรสาคร 74000 Tel: 0-3442-2818   Fax : - PEA VOLTA สมุทรสาคร,50 kW,13.54332638,100.26477051,PEA
99.9409256,12.81742477,บางจาก ชะอำ,555/5 ถ.เพชรเกษม (ชะอำ) ต.เขาใหญ่ อ.ชะอำ จ.เพชรบุรี 76120 PEA VOLTA บางจาก ชะอำ #1,50 kW,12.81742477,99.9409256,PEA
99.8276062,13.31848145,บางจาก วังมะนาว (ขาออก),3/1 ม.2 ถ.เพชรเกษม ต.ห้วยโรง อ.เขาย้อย จ.เพชรบุรี 76140 PEA VOLTA บางจาก วังมะนาว (ขาออก) #1,50 kW,13.31848145,99.8276062,PEA
98.90280151,8.10309505,บางจาก เมืองกระบี่,48/26 ถ.ศรีพังงา ต.ปากน้ำ อ.เมือง จ.กระบี่ 81000 PEA VOLTA บางจาก เมืองกระบี่ #2,50 kW,8.10309505,98.90280151,PEA
99.16378784,7.87007999,บางจาก คลองท่อม,154 ม.1 ถ.เพชรเกษม (4) ต.ห้วยน้ำขาว อ.คลองท่อม จ.กระบี่ 81120 PEA VOLTA บางจาก คลองท่อม #1,50 kW,7.87007999,99.16378784,PEA
100.99969482,13.41339302,บางจาก บายพาสชลบุรี,99/1 ม.4 ถ.สายอ้อมเมืองชลบุรี ต.หนองไม้แดง อ.เมือง จ.ชลบุรี 20000 PEA VOLTA บางจาก บายพาสชลบุรี #1,50 kW,13.41339302,100.99969482,PEA
100.34738159,16.85162544,บางจาก เมืองพิษณุโลก (ทล.11 กม.228),555 ม.3 ต.ดอนทอง อ.เมืองพิษณุโลก จ.พิษณุโลก 65000 PEA VOLTA บางจาก เมืองพิษณุโลก (ทล.11 กม.228) #1,50 kW,16.85162544,100.34738159,PEA
100.61248016,14.26578903,บางจาก บางปะอิน,59 ม.3 สายเอเชีย ต.บ้านหว้า อ.บางปะอิน จ.พระนครศรีอยุธยา 13160 PEA VOLTA บางจาก บางปะอิน #1,50 kW,14.26578903,100.61248016,PEA
100.98709869,14.57350159,บางจาก แก่งคอย,94 ม.4 ถ.มิตรภาพ ต.ตาลเดี่ยว อ.แก่งคอย จ.สระบุรี 18110 PEA VOLTA บางจาก แก่งคอย #1,50 kW,14.57350159,100.98709869,PEA
101.35745239,14.65200138,บางจาก ปากช่อง,199 ม.1 ถ.มิตรภาพ ต.ปากช่อง อ.ปากช่อง จ.นครราชสีมา 30130 PEA VOLTA บางจาก ปากช่อง #1,50 kW,14.65200138,101.35745239,PEA
101.08281708,13.33185959,บางจาก บ้านบึง,105 ม.5 ถ.สายชลบุรี-บ้านบึง ต.มาบไผ่ อ.บ้านบึง จ.ชลบุรี 20170 PEA VOLTA บางจาก บ้านบึง #2,50 kW,13.33185959,101.08281708,PEA
99.87414551,19.19921875,พะเยา,เลขที่ 159 หมู่ 1 ต.แม่ปืม อ.เมือง จ.พะเยา 56000 PEA VOLTA พะเยา #2,50 kW,19.19921875,99.87414551,PEA
100.14887238,18.11483765,แพร่,หมู่ 8 189 ต.นาจักร อ.เมือง จ.แพร่ 54000 PEA VOLTA แพร่ #1,50 kW,18.11483765,100.14887238,PEA
103.6271286,16.04526901,ร้อยเอ็ด,308 หมู่ 7 ถ.เลี่ยงเมือง ต.ดงลาน อ.เมือง จ.ร้อยเอ็ด 45000 PEA VOLTA ร้อยเอ็ด #2,50 kW,16.04526901,103.6271286,PEA
102.04100037,14.95731163,บางจาก นครราชสีมา (กม. 141),1587/1 ถ.มิตรภาพ ต.บ้านใหม่ อ.เมือง จ.นครราชสีมา 30000 PEA VOLTA บางจาก นครราชสีมา (กม. 141) #1,50 kW,14.95731163,102.04100037,PEA
99.15952301,9.12692261,บางจาก พุนพิน,85 ม.3 ถ.เอเซีย ต.หัวเตย อ.พุนพิน จ.สุราษฎร์ธานี 84130 PEA VOLTA บางจาก พุนพิน #1,50 kW,9.12692261,99.15952301,PEA
99.07875824,9.77398396,บางจาก ละแม,139 ม.9 ต.ทุ่งหลวง อ.ละแม จ.ชุมพร 86170 PEA VOLTA บางจาก ละแม #2,50 kW,9.77398396,99.07875824,PEA
99.70331573,16.21014404,บางจาก คลองขลุง,39/8 ม.10 ต.คลองขลุง อ.คลองขลุง จ.กำแพงเพชร 62120 PEA VOLTA บางจาก คลองขลุง #1,50 kW,16.21014404,99.70331573,PEA
99.12906647,16.87879181,บางจาก เมืองตาก,9 ม.5 ต.เชียงเงิน อ.เมืองตาก จ.ตาก 63000 PEA VOLTA บางจาก เมืองตาก #2,50 kW,16.87879181,99.12906647,PEA
101.60757446,14.84046268,บางจาก สีคิ้ว (มิตรภาพ กม.92),25 ม.12 ต.ลาดบัวขาว อ.สีคิ้ว จ.นครราชสีมา 30340 PEA VOLTA บางจาก สีคิ้ว (มิตรภาพ กม.92) #1,50 kW,14.84046268,101.60757446,PEA
99.12245941,10.59331322,บางจาก ท่าแซะ,ท่าแซะ ต.ท่าข้าม อ.ท่าแซะ จ.ชุมพร 86140 PEA VOLTA บางจาก ท่าแซะ #2,50 kW,10.59331322,99.12245941,PEA
98.34481049,7.9089098,บางจาก กะทู้,2/75-76 ม.2 ถ.ทางหลวงชนบท ป่าตอง-กะทู้ (2010) ต.กะทู้ อ.กะทู้ จ.ภูเก็ต 83120 PEA VOLTA บางจาก กะทู้ #1,50 kW,7.9089098,98.34481049,PEA
99.02420044,18.7917366,บางจาก ซุปเปอร์ไฮเวย์เชียงใหม่,99 ม.1 ถ.ซุปเปอร์ไฮเวย์ ต.หนองป่าครั่ง อ.เมือง จ.เชียงใหม่ 50000 PEA VOLTA บางจาก ซุปเปอร์ไฮเวย์เชียงใหม่ #1,50 kW,18.7917366,99.02420044,PEA
98.33696747,7.8075428,บางจาก เมืองภูเก็ต,24/11 ม.4 ถ.วิเศษ ต.ราไวย์ อ.เมือง จ.ภูเก็ต 83130 PEA VOLTA บางจาก เมืองภูเก็ต #1,50 kW,7.8075428,98.33696747,PEA
98.47972107,8.42503834,บางจาก เมืองพังงา,29/38 ม.3 ต.ตากแดด อ.เมือง จ.พังงา 80180 PEA VOLTA บางจาก เมืองพังงา #1,50 kW,8.42503834,98.47972107,PEA
102.77641296,17.89057541,บางจาก เมืองหนองคาย,57/1 ม.5 ถ.สายหนองคาย-โพนพิสัย ต.หาดคำ อ.เมือง จ.หนองคาย 43000 (สถานีให้บริการน้ำมันให้บริการในเวลา 5:30-21:30 น.) PEA VOLTA บางจาก เมืองหนองคาย #1,50 kW,17.89057541,102.77641296,PEA
102.81069183,16.3802948,บางจาก เมืองขอนแก่น (แยกเมืองเก่า),485 ม.12 ถ.สายขอนแก่น-บ้านไผ่ (มิตรภาพ) ต.ศิลา อ.เมือง จ.ขอนแก่น 40000 PEA VOLTA บางจาก เมืองขอนแก่น (แยกเมืองเก่า) #2,50 kW,16.3802948,102.81069183,PEA
100.35731506,14.98171806,บางจาก อินทร์บุรี (ขาออก),116 ม.1 ถ.สายเอเชีย ต.น้ำตาล อ.อินทร์บุรี จ.สิงห์บุรี 16110 PEA VOLTA บางจาก อินทร์บุรี (ขาออก) #1,50 kW,14.98171806,100.35731506,PEA
101.21662903,16.76070213,หล่มสัก,145 หมู่ 3 ถนนสระบุรี-หล่มสัก ต.หนองไขว่ อ.หล่มสัก จ.เพชรบูรณ์ 67110 PEA VOLTA หล่มสัก #1,50 kW,16.76070213,101.21662903,PEA
99.73159027,19.75447845,บางจาก แม่ลาว,59 ม.2 ถ.พหลโยธิน (พาน-เชียงราย) ต.จอมหมอกแก้ว อ.แม่ลาว จ.เชียงราย 57250 (สถานีให้บริการน้ำมันให้บริการในเวลา 05:30-22:00 น.) PEA VOLTA บางจาก แม่ลาว #1,50 kW,19.75447845,99.73159027,PEA
102.5921936,15.72360611,บางจาก พล,10 ม.8 ถ.ทางหลวงแผ่นดินหมายเลข 2 ต.หนองแวงโสกพระ อ.พล จ.ขอนแก่น 40120 PEA VOLTA บางจาก พล #1,50 kW,15.72360611,102.5921936,PEA
102.80043793,17.40020943,บางจาก เมืองอุดรธานี,558 ถ.โพศรี ต.หมากแข้ง อ.เมือง จ.อุดรธานี 41000 PEA VOLTA บางจาก เมืองอุดรธานี #1,50 kW,17.40020943,102.80043793,PEA
100.90988159,12.96428871,บางจาก นาเกลือ,472/59 ม.4 ต.นาเกลือ อ.บางละมุง จ.ชลบุรี 20150 PEA VOLTA บางจาก นาเกลือ #2,50 kW,12.96428871,100.90988159,PEA
100.46021271,7.00386286,บางจาก หาดใหญ่,46/1 ถ.เพชรเกษม ต.หาดใหญ่ อ.หาดใหญ่ จ.สงขลา 90110 PEA VOLTA บางจาก หาดใหญ่ #2,50 kW,7.00386286,100.46021271,PEA
99.63127899,8.1750927,บางจาก ทุ่งสง,83/1 ม.7 ต.หนองหงส์ ต.ทุ่งสง จ.นครศรีธรรมราช 80110 PEA VOLTA บางจาก ทุ่งสง #2,50 kW,8.1750927,99.63127899,PEA
99.63079834,11.54640007,บางจาก ทับสะแก,55 ม.1 ถ.เพชรเกษม ต.แสงอรุณ ต.ทับสะแก จ.ประจวบคีรีขันธ์ 77130 PEA VOLTA บางจาก ทับสะแก #2,50 kW,11.54640007,99.63079834,PEA
101.98202515,12.71175194,บางจาก ท่าใหม่,67/20 ม.3 ถ.สุขุมวิท ต.ทุ่งเบญจา อ.ท่าใหม่ จ.จันทบุรี 22170 PEA VOLTA บางจาก ท่าใหม่ #2,50 kW,12.71175194,101.98202515,PEA
100.12822723,15.49873257,บางจาก พยุหะคีรี,41/1 ม.2 ถ.พหลโยธิน ต.ย่านมัทรี อ.พยุหะคีรี จ.นครสวรรค์ 60130 PEA VOLTA บางจาก พยุหะคีรี #2,50 kW,15.49873257,100.12822723,PEA
100.1280899,16.18552208,บางจาก บึงนาราง,456 ม.2 ต.บึงนาราง อ.บึงนาราง จ.พิจิตร 66130 PEA VOLTA บางจาก บึงนาราง #2,50 kW,16.18552208,100.1280899,PEA
101.98297882,14.93463707,บางจาก นครราชสีมา (กม. 134),444/1 ม.8 ต.โคกกรวด อ.เมือง จ.นครราชสีมา 30000 PEA VOLTA บางจาก นครราชสีมา (กม. 134) #1,50 kW,14.93463707,101.98297882,PEA
104.22760773,14.65510368,บางจาก ขุขันธ์,58 ม.8 ถ.ทางหลวงแผ่นดินสายโชคชัย-เดชอุดม (24) ต.นิคมพัฒนา อ.ขุขันธ์ จ.ศรีสะเกษ 33140 (สถานีให้บริการน้ำมันให้บริการในเวลา 06:00-20:00 น. ผู้ใช้บริการ PEA VOLTA ต้องทำการเลื่อนรั้วกั้นเพื่อเข้าใช้บริการ) PEA VOLTA บางจาก ขุขันธ์ #1,50 kW,14.65510368,104.22760773,PEA
102.04624939,13.83916283,สระแก้ว,เลขที่ 6 ถ.สุวรรณศร ต.สระแก้ว อ.เมือง จ.สระแก้ว 27000 PEA VOLTA สระแก้ว #2,50 kW,13.83916283,102.04624939,PEA
103.08460236,15.05379486,บางจาก เมืองบุรีรัมย์ (คูเมือง),188 ม.3 ถ.บุรีรัมย์-คูเมือง ต.ชุมเห็ด อ.เมือง จ.บุรีรัมย์ 31000 PEA VOLTA บางจาก เมืองบุรีรัมย์ (คูเมือง) #2,50 kW,15.05379486,103.08460236,PEA
103.05731964,14.61214161,บางจาก ประโคนชัย,ต.โคกม้า อ.ประโคนชัย จ.บุรีรัมย์ 31140 PEA VOLTA บางจาก ประโคนชัย #1,50 kW,14.61214161,103.05731964,PEA
101.67284393,12.78665543,บางจาก แกลง,337/1 ถ.สุขุมวิท ต.ทางเกวียน อ.แกลง จ.ระยอง 21110 PEA VOLTA บางจาก แกลง #1,50 kW,12.78665543,101.67284393,PEA
100.64606476,14.19540596,บางจาก วังน้อย (พหลโยธิน กม.57),555 ม.2 ถ.พหลโยธิน ต.ลำไทร อ.วังน้อย จ.พระนครศรีอยุธยา 13170 PEA VOLTA บางจาก วังน้อย (พหลโยธิน กม.57) #2,50 kW,14.19540596,100.64606476,PEA
101.01564026,13.36228561,บางจาก เมืองชลบุรี,ถ.เลี่ยงเมืองชลบุรี ต.บ้านสวน อ.เมืองชลบุรี จ.ชลบุรี 20000 PEA VOLTA บางจาก เมืองชลบุรี #1,50 kW,13.36228561,101.01564026,PEA
101.25444794,12.6824894,บางจาก เมืองระยอง,351/2 ถ.สุขุมวิท ต.เนินพระ อ.เมือง จ.ระยอง 21000 PEA VOLTA บางจาก เมืองระยอง #2,50 kW,12.6824894,101.25444794,PEA
99.92877197,7.89833117,บางจาก ชะอวด,228/4 ม.2 ถ.ทางหลวงหมายเลข 41 ต.เกาะขันธ์ อ.ชะอวด จ.นครศรีธรรมราช 80180 PEA VOLTA บางจาก ชะอวด #1,50 kW,7.89833117,99.92877197,PEA
99.60598755,7.5609951,บางจาก เมืองตรัง,6 ถ.วิเศษกุล ต.ทับเที่ยง อ.เมือง จ.ตรัง 92000 PEA VOLTA บางจาก เมืองตรัง #1,50 kW,7.5609951,99.60598755,PEA
102.3765564,12.37870502,บางจาก เขาสมิง,92/1 ม.5 ถ.สุขุมวิท ต.แสนตุ้ง อ.เขาสมิง จ.ตราด 23150 (สถานีให้บริการน้ำมันให้บริการในเวลา 06:00-20:00 น.) PEA VOLTA บางจาก เขาสมิง #1,50 kW,12.37870502,102.3765564,PEA
101.43467712,13.03796291,บางจาก วังจันทร์,168 หมู่6 ต.ป่ายุปใน อ.วังจันทร์ จ.ระยอง 21210 PEA VOLTA บางจาก วังจันทร์ #1,50 kW,13.03796291,101.43467712,PEA
100.02313232,13.80427837,บางจาก เมืองนครปฐม (กม. 61 ขาเข้า),272 ม.2 ถ.เพชรเกษม ต.ลำพยา อ.เมือง จ.นครปฐม 73000 PEA VOLTA บางจาก เมืองนครปฐม (กม. 61 ขาเข้า) #1,50 kW,13.80427837,100.02313232,PEA
99.5610733,13.99449635,บางจาก ท่าม่วง,6 ม.1 ต.ท่าล้อ อ.ท่าม่วง จ.กาญจนบุรี 71000 PEA VOLTA บางจาก ท่าม่วง #1,50 kW,13.99449635,99.5610733,PEA
99.38988495,18.31063461,บางจาก ห้างฉัตร,141 ม.1 ถ.สายลำปาง-เชียงใหม่ ต.ปงยางคก อ.ห้างฉัตร จ.ลำปาง 52190 PEA VOLTA บางจาก ห้างฉัตร #1,50 kW,18.31063461,99.38988495,PEA
99.13359833,18.87332153,บางจาก ดอยสะเก็ด,480-480/1 ม.3 ถ.ติดทางหลวงจังหวัดสายดอยสะเก็ด-แม่สาย (1019) ต.เชิงดอย อ.ดอยสะเก็ด จ.เชียงใหม่ 50220 PEA VOLTA บางจาก ดอยสะเก็ด #1,50 kW,18.87332153,99.13359833,PEA
98.95011902,18.90111542,บางจาก แม่ริม,197 ม.4 ถ.สายเชียงใหม่-ฝาง ต.แม่สา อ.แม่ริม จ.เชียงใหม่ 50180 PEA VOLTA บางจาก แม่ริม #1,50 kW,18.90111542,98.95011902,PEA
98.75217438,18.4515667,บางจาก ดอยหล่อ,19 ม.23 ต.ดอยหล่อ อ.ดอยหล่อ จ.เชียงใหม่ 50160 PEA VOLTA บางจาก ดอยหล่อ #1,50 kW,18.4515667,98.75217438,PEA
100.2725296,13.78533554,บางจาก สามพราน,18/8 ม.2 ถ.สายปิ่นเกล้า-นครชัยศรี ต.บางเตย อ.สามพราน จ.นครปฐม 73110 (สถานีให้บริการน้ำมันให้บริการในเวลา 5:30-23:00 น.) PEA VOLTA บางจาก สามพราน #1,50 kW,13.78533554,100.2725296,PEA
100.08407593,13.45208073,บางจาก นาโคก (ขาออก),84/7 ม.2 ถ.สายธนบุรี-ปากท่อ ต.นาโคก อ.เมือง จ.สมุทรสาคร 74000 PEA VOLTA บางจาก นาโคก (ขาออก) #1,50 kW,13.45208073,100.08407593,PEA
100.23114014,16.84242058,บางจาก เมืองพิษณุโลก (เซ็นทรัล),68/3 ม.5 ถ.สายพิษณุโลก-สุโขทัย ต.พลายชุมพล อ.เมืองพิษณุโลก จ.พิษณุโลก 65000 PEA VOLTA บางจาก เมืองพิษณุโลก (เซ็นทรัล) #2,50 kW,16.84242058,100.23114014,PEA
99.96103668,12.55186462,หัวหิน,2/7 ถ.เพชรเกษม ต.หนองแก อ.หัวหิน จ.ประจวบคีรีขันธ์ 77110 Tel: 0-3251-2215  Fax :  PEA VOLTA หัวหิน,50 kW,12.55186462,99.96103668,PEA
100.61618805,14.04528141,รังสิต,60 หมู่ 6 ถนนพหลโยธิน ต.คลองหนึ่ง อ.คลองหลวง จ.ปทุมธานี 12120 Tel: 02-516-8659  PEA VOLTA รังสิต ,50 kW,14.04528141,100.61618805,PEA
101.4057312,14.69263268,ปากช่อง,171 ถ.มิตรภาพ ต.ปากช่อง อ.ปากช่อง จ.นครราชสีมา 30130 Tel: 0-4431-3373   Fax : - PEA VOLTA ปากช่อง,50 kW,14.69263268,101.4057312,PEA
102.83187103,16.51951981,บางจาก เมืองขอนแก่น (มิตรภาพ กม.348),78 ม.1 ถ.มิตรภาพ ต.ศิลา อ.เมือง จ.ขอนแก่น 40000 PEA VOLTA บางจาก เมืองขอนแก่น (มิตรภาพ กม.348) #1,50 kW,16.51951981,102.83187103,PEA
101.27690125,13.57745838,บางจาก แปลงยาว,ตำบล วังเย็น อำเภอแปลงยาว ฉะเชิงเทรา 24190 PEA VOLTA บางจาก แปลงยาว #1,50 kW,13.57745838,101.27690125,PEA
101.05323029,13.70575047,บางจาก เมืองฉะเชิงเทรา,ตำบล วังตะเคียน อำเภอเมืองฉะเชิงเทรา ฉะเชิงเทรา 24000 PEA VOLTA บางจาก เมืองฉะเชิงเทรา #2,50 kW,13.70575047,101.05323029,PEA
97.9343338,18.18301392,แม่สระเรียง,255/33 ตำบล บ้านกาด อำเภอแม่สะเรียง แม่ฮ่องสอน 58110 PEA VOLTA แม่สระเรียง #1,50 kW,18.18301392,97.9343338,PEA
100.72535706,18.56295776,เวียงสา,301 หมู่ที่ 10 ตำบล กลางเวียง อำเภอเวียงสา น่าน 55110 PEA VOLTA เวียงสา #1,50 kW,18.56295776,100.72535706,PEA
100.89305878,19.18110466,ปัว,292 ม.1 ต.ปัว อ.ปัว จ.น่าน 55120 PEA VOLTA ปัว #1,50 kW,19.18110466,100.89305878,PEA
100.07946777,17.60806847,เมืองอุตรดิตถ์,174 บรมอาสน์ ถนน บรมอาสน์ ตำบล ท่าอิฐ อำเภอเมืองอุตรดิตถ์ อุตรดิตถ์ 53000 PEA VOLTA เมืองอุตรดิตถ์ #1,50 kW,17.60806847,100.07946777,PEA
100.78266144,18.79540062,เมืองน่าน,82/15 ถนน มหายศ ตำบล ในเวียง อำเภอเมืองน่าน น่าน 55000 PEA VOLTA เมืองน่าน #1,50 kW,18.79540062,100.78266144,PEA
102.27072144,15.09766102,บางจาก โนนสูง,ตำบล ดอนหวาย อำเภอโนนสูง นครราชสีมา 30160 PEA VOLTA บางจาก โนนสูง #2,50 kW,15.09766102,102.27072144,PEA
103.07962799,14.98336124,บางจาก เมืองบุรีรัมย์ (โฮมโปร),500 หมู่9 ตำบล อิสาณ อำเภอเมืองบุรีรัมย์ บุรีรัมย์ 31000 PEA VOLTA บางจาก เมืองบุรีรัมย์ (โฮมโปร) #1,50 kW,14.98336124,103.07962799,PEA
102.08203125,15.02720547,บางจาก บายพาสโคราช (กม.11 ),ตำบล หนองกระทุ่ม อำเภอเมืองนครราชสีมา นครราชสีมา 30000 PEA VOLTA บางจาก บายพาสโคราช (กม.11 ) #1,50 kW,15.02720547,102.08203125,PEA
102.08209991,15.02725792,บางจาก บายพาสโคราช (กม.11),ตำบล หนองกระทุ่ม อำเภอเมืองนครราชสีมา นครราชสีมา 30000 PEA VOLTA บางจาก บายพาสโคราช (กม.11) #2,50 kW,15.02725792,102.08209991,PEA
103.49375153,17.4682579,สว่างแดนดิน,22 ตำบล สว่างแดนดิน อำเภอสว่างแดนดิน สกลนคร 47110 PEA VOLTA สว่างแดนดิน #1,50 kW,17.4682579,103.49375153,PEA
100.520401,13.91230679,บริษัท พรีไซซ ซิสเท็ม (ร่วมเครือข่าย ),เลขที่ 1/333 หมู่ที่ 9 ตำบลบางพูด  อำเภอปากเกร็ด  จังหวัดนนทบุรี บริษัท พรีไซซ ซิสเท็ม (ร่วมเครือข่าย PEA VOLTA),40 kW,13.91230679,100.520401,PEA
100.99124146,13.34035683,ชลบุรี 3,ตำบล หนองข้างคอก อำเภอเมืองชลบุรี ชลบุรี 20000 PEA VOLTA ชลบุรี 3,25 kW,13.34035683,100.99124146,PEA
100.59719849,14.35430241,พระนครศรีอยุธยา 2,60 หมู่ 5 ตำบล ไผ่ลิง อำเภอ พระนครศรีอยุธยา จังหวัด พระนครศรีอยุธยา PEA VOLTA พระนครศรีอยุธยา 2,25 kW,14.35430241,100.59719849,PEA
102.49250793,12.27341747,ตราด,199 ม. 5 ตำบลวังกระแจะ อำเภอเมืองตราด จังหวัดตราด 23000  PEA VOLTA ตราด,25 kW,12.27341747,102.49250793,PEA
101.03292847,13.62499332,บ้านโพธิ์,80 หมู่ที่ 1 ถนน บางปะกง - ฉะเชิงเทรา ตำบล คลองประเวศ อำเภอบ้านโพธิ์ ฉะเชิงเทรา 24140 PEA VOLTA บ้านโพธิ์,25 kW,13.62499332,101.03292847,PEA
99.93880463,9.52032089,เกาะสมุย,ตำบล อ่างทอง อำเภอเกาะสมุย สุราษฎร์ธานี 84140 PEA VOLTA เกาะสมุย,25 kW,9.52032089,99.93880463,PEA
99.99252319,9.70783424,เกาะพะงัน,101 หมู่ 3 ตำบล บ้านใต้ อำเภอเกาะพะงัน สุราษฎร์ธานี 84280 PEA VOLTA เกาะพะงัน,25 kW,9.70783424,99.99252319,PEA
101.06825256,5.77053022,เบตง,เลขที่ 1 ถ.สโมสร ตำบลเบตง อำเภอเบตง ยะลา 95110 PEA VOLTA เบตง,25 kW,5.77053022,101.06825256,PEA
102.23729706,13.10176086,สอยดาว,222 ตำบล ทรายขาว อำเภอ สอยดาว จันทบุรี 22180 PEA VOLTA สอยดาว,25 kW,13.10176086,102.23729706,PEA
99.55176544,14.02805042,กาญจนบุรี,49 ตำบล ปากแพรก อำเภอเมืองกาญจนบุรี กาญจนบุรี 71000 PEA VOLTA กาญจนบุรี,25 kW,14.02805042,99.55176544,PEA
100.13065338,14.51966,สุพรรณบุรี,188 หมู่1 ตำบลสนามชัย อำเภอเมืองสุพรรณบุณี จังหวัดสุพรรณบุรี 72000 PEA VOLTA สุพรรณบุรี,25 kW,14.51966,100.13065338,PEA
100.34598541,16.43827248,เมืองพิจิตร,ซอย บึงสีไฟ 6 ตำบล ในเมือง อำเภอเมืองพิจิตร พิจิตร 66000 PEA VOLTA เมืองพิจิตร,25 kW,16.43827248,100.34598541,PEA
99.12432098,16.86868668,ตาก,3 จอมพล ตำบลระแหง อำเภอเมืองตาก ตาก 63000 PEA VOLTA ตาก,25 kW,16.86868668,99.12432098,PEA
100.47024536,16.20484924,ตะพานหิน,119 หมู่ 3 ถนนตะพานหิน-เพชรบูรณ์ ตำบลตะพานหิน อำเภอตะพานหิน จังหวัดพิจิตร 66110 PEA VOLTA ตะพานหิน,25 kW,16.20484924,100.47024536,PEA
99.78053284,16.02359009,ขาณุวรลักษบุรี,ถ. พหลโยธิน ต.ดอนแตง อำเภอขาณุวรลักษบุรี กำแพงเพชร 62140 PEA VOLTA ขาณุวรลักษบุรี,25 kW,16.02359009,99.78053284,PEA
99.94366455,13.09834576,เพชรบุรี,ถ.ราชดำเนิน ตำบล คลองกระแซง อำเภอเมืองเพชรบุรี เพชรบุรี 76000 PEA VOLTA เพชรบุรี,25 kW,13.09834576,99.94366455,PEA
99.8482132,13.68953323,โพธาราม,190 ซอย เลิศพาณิชย์ ตำบล โพธาราม อำเภอโพธาราม ราชบุรี 70120 PEA VOLTA โพธาราม,25 kW,13.68953323,99.8482132,PEA
99.61400604,13.62386417,จอมบึง,35/2 ถนน ราชบุรี - ผาปก ตำบล จอมบึง อำเภอ จอมบึง ราชบุรี 70150 PEA VOLTA จอมบึง,25 kW,13.62386417,99.61400604,PEA
99.25115967,8.5707922,พระแสง,ตำบล อิปัน อำเภอ พระแสง สุราษฎร์ธานี 84210 PEA VOLTA พระแสง,25 kW,8.5707922,99.25115967,PEA
100.27180481,8.04808903,หัวไทร,221 หมู่11 ตำบล หัวไทร อำเภอ หัวไทร นครศรีธรรมราช 80170 PEA VOLTA หัวไทร,25 kW,8.04808903,100.27180481,PEA
100.03018951,7.60148478,พัทลุง,ตำบล เขาเจียก อำเภอเมืองพัทลุง พัทลุง 93000 PEA VOLTA พัทลุง,25 kW,7.60148478,100.03018951,PEA
100.34501648,15.00669289,อินทร์บุรี,115 หมู่1 ถนนเอเซีย ตำบลน้ำตาล อำเภออินทร์บุรี จังหวัดสิงห์บุรี 16110 Thailand PEA VOLTA อินทร์บุรี,25 kW,15.00669289,100.34501648,PEA
100.44991302,14.76882744,พรหมบุรี,66 ตำบล บ้านหม้อ อำเภอพรหมบุรี สิงห์บุรี 16120 PEA VOLTA พรหมบุรี,25 kW,14.76882744,100.44991302,PEA
100.49626923,7.01746988,หาดใหญ่,75 ถนน เพชรเกษม ซอย 15/2 ตำบล หาดใหญ่ อำเภอหาดใหญ่ สงขลา 90110 PEA VOLTA หาดใหญ่,25 kW,7.01746988,100.49626923,PEA
104.71417236,15.52629185,ม่วงสามสิบ,ตำบล ม่วงสามสิบ อำเภอ ม่วงสามสิบ อุบลราชธานี 34140 PEA VOLTA ม่วงสามสิบ,25 kW,15.52629185,104.71417236,PEA
103.10186768,15.03031445,เมืองบุรีรัมย์,190 หมู่ 8 ถนนบุรีรัมย์-พุทไธสง ตำบลชุมเห็ด อำเภอเมืองบุรีรัมย์ จังหวัดบุรีรัมย์ รหัสไปรษณีย์ 31000 PEA VOLTA เมืองบุรีรัมย์,25 kW,15.03031445,103.10186768,PEA
102.08486938,15.82796764,เมืองชัยภูมิ,123 หมู่10 ถนนนิเวศรัตน์ ตำบลโพนทอง อำเภอเมืองชัยภูมิ จังหวัดชัยภูมิ 36000 PEA VOLTA เมืองชัยภูมิ,25 kW,15.82796764,102.08486938,PEA
103.50759888,14.90936279,เมืองสุรินทร์,สาขา 164 9 เทศบาล 4 ตำบล ในเมือง อำเภอเมืองสุรินทร์ สุรินทร์ 32000 PEA VOLTA เมืองสุรินทร์,25 kW,14.90936279,103.50759888,PEA
98.92817688,18.68805313,หางดง,197 หมู่ที่ 8 ตำบล หนองแก๋ว อำเภอหางดง เชียงใหม่ 50230 PEA VOLTA หางดง,25 kW,18.68805313,98.92817688,PEA
98.93927765,18.92609978,แม่ริม,107 ตำบล ริมเหนือ อำเภอแม่ริม เชียงใหม่ 50180 PEA VOLTA แม่ริม,25 kW,18.92609978,98.93927765,PEA
99.04486084,18.87583351,สันทราย,151 หมู่ 4 ถนนสันทราย-พร้าว ตำบลป่าไผ่ อำเภอสันทราย จังหวัดเชียงใหม่ 50210 PEA VOLTA สันทราย,25 kW,18.87583351,99.04486084,PEA
102.19113922,14.98846817,นครราชสีมา 2 (หัวทะเล),หมู่ที่ 1 69 ถนน เพชรมาตุคลา ตำบล พะเนา อำเภอเมืองนครราชสีมา นครราชสีมา 30000 PEA VOLTA นครราชสีมา 2 (หัวทะเล),25 kW,14.98846817,102.19113922,PEA
100.17254639,14.00584126,บางเลน,1/1 หมู่ 6 ถนนดอนตูม-บางเลน ต.บางเลน อ.บางเลน นครปฐม 73130 PEA VOLTA บางเลน,25 kW,14.00584126,100.17254639,PEA
100.49356842,15.34553528,ตากฟ้า,14 หมู่1 ซอยนภาเขตพัฒนา ซอย 6 ตำบลตากฟ้า อำเภอตากฟ้า จังหวัดนครสวรรค์ 60190  PEA VOLTA ตากฟ้า,25 kW,15.34553528,100.49356842,PEA
101.22705078,14.21732998,นครนายก,138 หมู่ที่ 5 ตำบลบ้านใหญ่ อำเภอเมืองนครนายก นครนายก 26000 PEA VOLTA นครนายก,25 kW,14.21732998,101.22705078,PEA
100.5816803,13.99131203,ปทุมธานี,21/42 หมู่3 ถนน รังสิต-ปทุมธานี ตำบล บางพูน อำเภอเมืองปทุมธานี ปทุมธานี 12000 PEA VOLTA ปทุมธานี,25 kW,13.99131203,100.5816803,PEA
100.67383575,13.99793816,ธัญบุรี,41/5 หมู่2 ถ.รังสิต-นครนายก ต.บึงยี่โถ อ.ธัญบุรี จ.ปธุมธานี 12130 PEA VOLTA ธัญบุรี,25 kW,13.99793816,100.67383575,PEA
101.00747681,15.81141567,บึงสามพัน,ตำบล ซับสมอทอด อำเภอบึงสามพัน เพชรบูรณ์ 67160 PEA VOLTA บึงสามพัน,25 kW,15.81141567,101.00747681,PEA
99.78910065,6.90512514,ละงู,หมู่ที่ 1 323 ตำบล กำแพง อำเภอ ละงู สตูล 91110 PEA VOLTA ละงู,25 kW,6.90512514,99.78910065,PEA
99.10469055,18.75284576,สันกำแพง,93 ถนน เชียงใหม่- ดอยสะเก็ด ตำบล สันกำแพง อำเภอสันกำแพง เชียงใหม่ 50130 PEA VOLTA สันกำแพง,25 kW,18.75284576,99.10469055,PEA
105.23967743,15.23124886,พิบูลมังสาหาร,ตำบล กุดชมภู อำเภอ พิบูลมังสาหาร อุบลราชธานี 34110 PEA VOLTA พิบูลมังสาหาร,25 kW,15.23124886,105.23967743,PEA
104.54030609,15.42167282,เขื่องใน,ตำบล ยางขี้นก อำเภอ เขื่องใน อุบลราชธานี 34150 PEA VOLTA เขื่องใน,25 kW,15.42167282,104.54030609,PEA
100.06893158,13.82365704,นครปฐม,242/15 ถนน 25 มกรา ตําบล พระปฐมเจดีย์ อําเภอเมืองนครปฐม จังหวัดนครปฐม 73000 PEA VOLTA นครปฐม,25 kW,13.82365704,100.06893158,PEA
104.21760559,15.49993706,มหาชนะชัย,129 หมู่6 ตำบล คูเมือง อำเภอ มหาชนะชัย ยโสธร 35130 PEA VOLTA มหาชนะชัย,25 kW,15.49993706,104.21760559,PEA
102.78028107,17.40585136,อุดรธานี,123 หมู่ 5 ถนน ช้างเผือก ตำบล นาดี อำเภอเมืองอุดรธานี อุดรธานี 41000 PEA VOLTA อุดรธานี,25 kW,17.40585136,102.78028107,PEA
102.7161026,16.05342484,บ้านไผ่,65 หมู่ 2 ถ. มิตรภาพ ตำบล บ้านไผ่ ขอนแก่น 40110 PEA VOLTA บ้านไผ่,25 kW,16.05342484,102.7161026,PEA
102.8693924,16.71722794,น้ำพอง,ตำบล วังชัย อำเภอน้ำพอง ขอนแก่น 40140 PEA VOLTA น้ำพอง,25 kW,16.71722794,102.8693924,PEA
102.84038544,16.44115829,ขอนแก่น,44 ถนนกสิกรทุ่งสร้าง ตำบลในเมือง อำเภอเมืองขอนแก่น ขอนแก่น 40000 PEA VOLTA ขอนแก่น,25 kW,16.44115829,102.84038544,PEA
